{
  "type": "FeatureCollection",
  "features": [
    {
      "type": "Feature",
      "properties": {
        "norad_id": 67011,
        "name": "STARLINK-36167",
        "group": "last-30-days",
        "lat": -27.273149656388913,
        "lon": 120.80341463462565,
        "alt_km": 333.3188760972316,
        "timestamp": "2025-12-24T09:46:29.718019+00:00",
        "meta_object_name": "STARLINK-36167",
        "meta_object_id": "2025-293J",
        "meta_epoch": "2025-12-24T04:00:01.998720",
        "meta_mean_motion": 15.81396863,
        "meta_eccentricity": 0.0003517,
        "meta_inclination": 69.9927,
        "meta_ra_of_asc_node": 290.6632,
        "meta_arg_of_pericenter": 274.3216,
        "meta_mean_anomaly": 5.8524,
        "meta_ephemeris_type": 0,
        "meta_classification_type": "U",
        "meta_norad_cat_id": 67011,
        "meta_element_set_no": 999,
        "meta_rev_at_epoch": 194,
        "meta_bstar": -0.0092187,
        "meta_mean_motion_dot": -0.01601808,
        "meta_mean_motion_ddot": 0,
        "tle_line1": "1 67011U 25293J   25358.16668980 -.01601808  00000+0 -92187-2 0  9997",
        "tle_line2": "2 67011  69.9927 290.6632 0003517 274.3216   5.8524 15.81396863  1946"
      },
      "geometry": {
        "type": "Point",
        "coordinates": [
          120.80341463462565,
          -27.273149656388913
        ]
      }
    },
    {
      "type": "Feature",
      "properties": {
        "norad_id": 67012,
        "name": "STARLINK-36175",
        "group": "last-30-days",
        "lat": -31.692173501846256,
        "lon": 122.97199046148474,
        "alt_km": 333.5084846958289,
        "timestamp": "2025-12-24T09:46:29.718030+00:00",
        "meta_object_name": "STARLINK-36175",
        "meta_object_id": "2025-293K",
        "meta_epoch": "2025-12-24T04:00:01.998720",
        "meta_mean_motion": 15.81362115,
        "meta_eccentricity": 0.0003612,
        "meta_inclination": 69.9927,
        "meta_ra_of_asc_node": 290.6578,
        "meta_arg_of_pericenter": 274.5093,
        "meta_mean_anomaly": 10.5058,
        "meta_ephemeris_type": 0,
        "meta_classification_type": "U",
        "meta_norad_cat_id": 67012,
        "meta_element_set_no": 999,
        "meta_rev_at_epoch": 194,
        "meta_bstar": -0.0092299,
        "meta_mean_motion_dot": -0.01601323,
        "meta_mean_motion_ddot": 0,
        "tle_line1": "1 67012U 25293K   25358.16668980 -.01601323  00000+0 -92299-2 0  9994",
        "tle_line2": "2 67012  69.9927 290.6578 0003612 274.5093  10.5058 15.81362115  1945"
      },
      "geometry": {
        "type": "Point",
        "coordinates": [
          122.97199046148474,
          -31.692173501846256
        ]
      }
    },
    {
      "type": "Feature",
      "properties": {
        "norad_id": 67013,
        "name": "STARLINK-35856",
        "group": "last-30-days",
        "lat": -34.04043153535013,
        "lon": 124.21715553831848,
        "alt_km": 333.36867051947684,
        "timestamp": "2025-12-24T09:46:29.718043+00:00",
        "meta_object_name": "STARLINK-35856",
        "meta_object_id": "2025-293L",
        "meta_epoch": "2025-12-24T04:00:01.998720",
        "meta_mean_motion": 15.81339719,
        "meta_eccentricity": 0.0003532,
        "meta_inclination": 69.9925,
        "meta_ra_of_asc_node": 290.6544,
        "meta_arg_of_pericenter": 266.4925,
        "meta_mean_anomaly": 21.1104,
        "meta_ephemeris_type": 0,
        "meta_classification_type": "U",
        "meta_norad_cat_id": 67013,
        "meta_element_set_no": 999,
        "meta_rev_at_epoch": 195,
        "meta_bstar": -0.0092115,
        "meta_mean_motion_dot": -0.01597004,
        "meta_mean_motion_ddot": 0,
        "tle_line1": "1 67013U 25293L   25358.16668980 -.01597004  00000+0 -92115-2 0  9992",
        "tle_line2": "2 67013  69.9925 290.6544 0003532 266.4925  21.1104 15.81339719  1957"
      },
      "geometry": {
        "type": "Point",
        "coordinates": [
          124.21715553831848,
          -34.04043153535013
        ]
      }
    },
    {
      "type": "Feature",
      "properties": {
        "norad_id": 67014,
        "name": "STARLINK-36207",
        "group": "last-30-days",
        "lat": -36.2487589112534,
        "lon": 125.46003731511912,
        "alt_km": 333.5146380612914,
        "timestamp": "2025-12-24T09:46:29.718053+00:00",
        "meta_object_name": "STARLINK-36207",
        "meta_object_id": "2025-293M",
        "meta_epoch": "2025-12-24T04:00:01.998720",
        "meta_mean_motion": 15.81323703,
        "meta_eccentricity": 0.0003555,
        "meta_inclination": 69.9929,
        "meta_ra_of_asc_node": 290.652,
        "meta_arg_of_pericenter": 268.0673,
        "meta_mean_anomaly": 21.9865,
        "meta_ephemeris_type": 0,
        "meta_classification_type": "U",
        "meta_norad_cat_id": 67014,
        "meta_element_set_no": 999,
        "meta_rev_at_epoch": 201,
        "meta_bstar": -0.0092799,
        "meta_mean_motion_dot": -0.01606329,
        "meta_mean_motion_ddot": 0,
        "tle_line1": "1 67014U 25293M   25358.16668980 -.01606329  00000+0 -92799-2 0  9992",
        "tle_line2": "2 67014  69.9929 290.6520 0003555 268.0673  21.9865 15.81323703  2015"
      },
      "geometry": {
        "type": "Point",
        "coordinates": [
          125.46003731511912,
          -36.2487589112534
        ]
      }
    },
    {
      "type": "Feature",
      "properties": {
        "norad_id": 67015,
        "name": "STARLINK-36093",
        "group": "last-30-days",
        "lat": -40.571057802466804,
        "lon": 128.13811062578785,
        "alt_km": 333.66683701507554,
        "timestamp": "2025-12-24T09:46:29.718063+00:00",
        "meta_object_name": "STARLINK-36093",
        "meta_object_id": "2025-293N",
        "meta_epoch": "2025-12-24T04:00:01.998720",
        "meta_mean_motion": 15.81285127,
        "meta_eccentricity": 0.0003515,
        "meta_inclination": 69.9924,
        "meta_ra_of_asc_node": 290.6457,
        "meta_arg_of_pericenter": 267.0467,
        "meta_mean_anomaly": 27.8486,
        "meta_ephemeris_type": 0,
        "meta_classification_type": "U",
        "meta_norad_cat_id": 67015,
        "meta_element_set_no": 999,
        "meta_rev_at_epoch": 195,
        "meta_bstar": -0.0092576,
        "meta_mean_motion_dot": -0.01600392,
        "meta_mean_motion_ddot": 0,
        "tle_line1": "1 67015U 25293N   25358.16668980 -.01600392  00000+0 -92576-2 0  9990",
        "tle_line2": "2 67015  69.9924 290.6457 0003515 267.0467  27.8486 15.81285127  1959"
      },
      "geometry": {
        "type": "Point",
        "coordinates": [
          128.13811062578785,
          -40.571057802466804
        ]
      }
    },
    {
      "type": "Feature",
      "properties": {
        "norad_id": 67016,
        "name": "STARLINK-36120",
        "group": "last-30-days",
        "lat": -38.314906531885924,
        "lon": 126.69544342303276,
        "alt_km": 333.57656211955236,
        "timestamp": "2025-12-24T09:46:29.718072+00:00",
        "meta_object_name": "STARLINK-36120",
        "meta_object_id": "2025-293P",
        "meta_epoch": "2025-12-24T04:00:01.998720",
        "meta_mean_motion": 15.81308917,
        "meta_eccentricity": 0.0003547,
        "meta_inclination": 69.9926,
        "meta_ra_of_asc_node": 290.6489,
        "meta_arg_of_pericenter": 267.4849,
        "meta_mean_anomaly": 24.8724,
        "meta_ephemeris_type": 0,
        "meta_classification_type": "U",
        "meta_norad_cat_id": 67016,
        "meta_element_set_no": 999,
        "meta_rev_at_epoch": 195,
        "meta_bstar": -0.0092881,
        "meta_mean_motion_dot": -0.01606583,
        "meta_mean_motion_ddot": 0,
        "tle_line1": "1 67016U 25293P   25358.16668980 -.01606583  00000+0 -92881-2 0  9998",
        "tle_line2": "2 67016  69.9926 290.6489 0003547 267.4849  24.8724 15.81308917  1955"
      },
      "geometry": {
        "type": "Point",
        "coordinates": [
          126.69544342303276,
          -38.314906531885924
        ]
      }
    },
    {
      "type": "Feature",
      "properties": {
        "norad_id": 67017,
        "name": "STARLINK-35498",
        "group": "last-30-days",
        "lat": -42.684393749490745,
        "lon": 129.59272926912408,
        "alt_km": 333.6282627203436,
        "timestamp": "2025-12-24T09:46:29.718086+00:00",
        "meta_object_name": "STARLINK-35498",
        "meta_object_id": "2025-293Q",
        "meta_epoch": "2025-12-24T04:00:01.998720",
        "meta_mean_motion": 15.81276823,
        "meta_eccentricity": 0.0003796,
        "meta_inclination": 69.9922,
        "meta_ra_of_asc_node": 290.6426,
        "meta_arg_of_pericenter": 268.7733,
        "meta_mean_anomaly": 28.5135,
        "meta_ephemeris_type": 0,
        "meta_classification_type": "U",
        "meta_norad_cat_id": 67017,
        "meta_element_set_no": 999,
        "meta_rev_at_epoch": 214,
        "meta_bstar": -0.0092924,
        "meta_mean_motion_dot": -0.016054,
        "meta_mean_motion_ddot": 0,
        "tle_line1": "1 67017U 25293Q   25358.16668980 -.01605400  00000+0 -92924-2 0  9994",
        "tle_line2": "2 67017  69.9922 290.6426 0003796 268.7733  28.5135 15.81276823  2144"
      },
      "geometry": {
        "type": "Point",
        "coordinates": [
          129.59272926912408,
          -42.684393749490745
        ]
      }
    }
  ]
}